OBJECT_NAME,OBJECT_ID,EPOCH,MEAN_MOTION,ECCENTRICITY,INCLINATION,RA_OF_ASC_NODE,ARG_OF_PERICENTER,MEAN_ANOMALY,EPHEMERIS_TYPE,CLASSIFICATION_TYPE,NORAD_CAT_ID,ELEMENT_SET_NO,REV_AT_EPOCH,BSTAR,MEAN_MOTION_DOT,MEAN_MOTION_DDOT
SAR-LUPE 2,2007-030A,2026-06-16T04:25:54.088320,15.49991557,.0005045,98.1048,271.4921,147.3469,212.8093,0,U,31797,999,5678,.49451E-3,.27669E-3,0
SAPPHIRE,2013-009C,2026-06-16T04:27:37.473696,14.35240338,.0010051,98.4259,346.6654,249.9475,110.0630,0,U,39088,999,69643,.46474E-4,.9E-6,0
PRAETORIAN SDA_602,2025-203A,2026-06-16T02:01:36.091200,13.84342658,.0005708,81.3031,11.7903,187.0739,173.0338,0,U,65565,999,3854,.37828E-4,.54E-6,0
PRAETORIAN SDA_603,2025-203B,2026-06-16T00:55:25.232736,13.83905732,.0009251,81.3038,11.7489,190.6484,169.4478,0,U,65566,999,3854,.90401E-4,.112E-5,0
PRAETORIAN SDA_604,2025-203C,2026-06-15T23:38:36.704256,13.83047326,.0005191,81.3053,12.2085,195.0799,165.0203,0,U,65567,999,3851,.36706E-4,.52E-6,0
PRAETORIAN SDA_605,2025-203D,2026-06-16T02:17:27.946176,13.83434079,.0008031,81.3018,11.7707,185.9668,174.1394,0,U,65568,999,3854,.29745E-4,.45E-6,0
PRAETORIAN SDA_606,2025-203E,2026-06-16T01:52:18.159744,13.83407264,.0005643,81.3055,12.0081,184.1200,175.9911,0,U,65569,999,3853,.41354E-4,.57E-6,0
PRAETORIAN SDA_607,2025-203F,2026-06-16T02:04:53.008032,13.84284449,.0008575,81.3038,11.6648,190.5923,169.5054,0,U,65570,999,3855,.99692E-4,.123E-5,0
PRAETORIAN SDA_608,2025-203G,2026-06-16T01:31:48.082080,13.83816699,.0005707,81.3007,11.8476,194.0340,166.0659,0,U,65571,999,3853,.35436E-4,.51E-6,0
PRAETORIAN SDA_609,2025-203H,2026-06-16T01:39:19.689696,13.84211310,.0006559,81.3053,11.8256,188.0754,172.0298,0,U,65572,999,3854,.15029E-3,.179E-5,0
PRAETORIAN SDA_610,2025-203J,2026-06-16T01:02:41.397216,13.83851756,.0006378,81.3007,11.8243,191.6470,168.4540,0,U,65573,999,3853,.28619E-4,.44E-6,0
PRAETORIAN SDA_611,2025-203K,2026-06-16T01:03:10.146816,13.83309424,.0005226,81.3009,11.9891,197.8382,162.2592,0,U,65574,999,3852,-.22652E-3,-.237E-5,0
PRAETORIAN SDA_612,2025-203L,2026-06-16T00:50:16.149696,13.85039102,.0008981,81.3030,11.5868,190.0419,170.0560,0,U,65575,999,3855,.72506E-4,.94E-6,0
PRAETORIAN SDA_613,2025-203M,2026-06-15T23:28:02.409024,13.82764868,.000549,81.2999,12.0459,187.2682,172.8395,0,U,65576,999,3851,.27934E-4,.42E-6,0
PRAETORIAN SDA_614,2025-203N,2026-06-16T02:18:24.757632,13.84777969,.0006947,81.3014,11.6070,186.6896,173.4170,0,U,65577,999,3856,.20242E-4,.35E-6,0
PRAETORIAN SDA_615,2025-203P,2026-06-16T01:44:44.590848,13.84435752,.0008774,81.3026,11.5916,188.4906,171.6104,0,U,65578,999,3855,.14868E-3,.178E-5,0
PRAETORIAN SDA_616,2025-203Q,2026-06-16T01:01:59.312640,13.83267649,.000516,81.3066,12.1342,195.7356,164.3640,0,U,65579,999,3852,.59225E-4,.77E-6,0
PRAETORIAN SDA_617,2025-203R,2026-06-16T01:32:57.412896,13.83149900,.0007191,81.3037,11.9454,187.2757,172.8296,0,U,65580,999,3853,.85022E-5,.21E-6,0
PRAETORIAN SDA_618,2025-203S,2026-06-16T00:56:07.664640,13.84669431,.0009515,81.3024,11.5533,190.9102,169.1851,0,U,65581,999,3855,.79607E-5,.21E-6,0
PRAETORIAN SDA_619,2025-203T,2026-06-16T01:46:51.533184,13.83805652,.0007938,81.3045,11.8156,189.0993,171.0020,0,U,65582,999,3917,.1859E-3,.218E-5,0
PRAETORIAN SDA_620,2025-203U,2026-06-16T02:26:56.839200,13.83618136,.000749,81.3031,11.8106,183.8837,176.2263,0,U,65583,999,3854,.93216E-4,.115E-5,0
PRAETORIAN SDA_621,2025-203V,2026-06-16T01:49:24.429216,13.83801072,.0007282,81.3021,11.7533,181.7316,178.3816,0,U,65584,999,3854,.31823E-4,.47E-6,0
PRAETORIAN SDA_601,2025-203W,2026-06-16T01:06:23.018400,13.83167927,.0005141,81.3037,12.0764,199.2047,160.8916,0,U,65585,999,3852,-.19216E-3,-.199E-5,0
