SAR-LUPE 2              
1 31797U 07030A   26167.18465380  .00027669  00000+0  49451-3 0  9999
2 31797  98.1048 271.4921 0005045 147.3469 212.8093 15.49991557 56789
SAPPHIRE                
1 39088U 13009C   26167.18585039  .00000090  00000+0  46474-4 0  9999
2 39088  98.4259 346.6654 0010051 249.9475 110.0630 14.35240338696430
PRAETORIAN SDA_602      
1 65565U 25203A   26167.08444550  .00000054  00000+0  37828-4 0  9991
2 65565  81.3031  11.7903 0005708 187.0739 173.0338 13.84342658 38540
PRAETORIAN SDA_603      
1 65566U 25203B   26167.03848649  .00000112  00000+0  90401-4 0  9995
2 65566  81.3038  11.7489 0009251 190.6484 169.4478 13.83905732 38542
PRAETORIAN SDA_604      
1 65567U 25203C   26166.98514704  .00000052  00000+0  36706-4 0  9992
2 65567  81.3053  12.2085 0005191 195.0799 165.0203 13.83047326 38516
PRAETORIAN SDA_605      
1 65568U 25203D   26167.09546234  .00000045  00000+0  29745-4 0  9996
2 65568  81.3018  11.7707 0008031 185.9668 174.1394 13.83434079 38542
PRAETORIAN SDA_606      
1 65569U 25203E   26167.07798796  .00000057  00000+0  41354-4 0  9990
2 65569  81.3055  12.0081 0005643 184.1200 175.9911 13.83407264 38531
PRAETORIAN SDA_607      
1 65570U 25203F   26167.08672463  .00000123  00000+0  99692-4 0  9997
2 65570  81.3038  11.6648 0008575 190.5923 169.5054 13.84284449 38556
PRAETORIAN SDA_608      
1 65571U 25203G   26167.06375095  .00000051  00000+0  35436-4 0  9993
2 65571  81.3007  11.8476 0005707 194.0340 166.0659 13.83816699 38538
PRAETORIAN SDA_609      
1 65572U 25203H   26167.06897789  .00000179  00000+0  15029-3 0  9999
2 65572  81.3053  11.8256 0006559 188.0754 172.0298 13.84211310 38541
PRAETORIAN SDA_610      
1 65573U 25203J   26167.04353469  .00000044  00000+0  28619-4 0  9991
2 65573  81.3007  11.8243 0006378 191.6470 168.4540 13.83851756 38532
PRAETORIAN SDA_611      
1 65574U 25203K   26167.04386744 -.00000237  00000+0 -22652-3 0  9990
2 65574  81.3009  11.9891 0005226 197.8382 162.2592 13.83309424 38524
PRAETORIAN SDA_612      
1 65575U 25203L   26167.03490914  .00000094  00000+0  72506-4 0  9998
2 65575  81.3030  11.5868 0008981 190.0419 170.0560 13.85039102 38556
PRAETORIAN SDA_613      
1 65576U 25203M   26166.97780566  .00000042  00000+0  27934-4 0  9994
2 65576  81.2999  12.0459 0005490 187.2682 172.8395 13.82764868 38517
PRAETORIAN SDA_614      
1 65577U 25203N   26167.09611988  .00000035  00000+0  20242-4 0  9997
2 65577  81.3014  11.6070 0006947 186.6896 173.4170 13.84777969 38560
PRAETORIAN SDA_615      
1 65578U 25203P   26167.07273832  .00000178  00000+0  14868-3 0  9992
2 65578  81.3026  11.5916 0008774 188.4906 171.6104 13.84435752 38551
PRAETORIAN SDA_616      
1 65579U 25203Q   26167.04304760  .00000077  00000+0  59225-4 0  9990
2 65579  81.3066  12.1342 0005160 195.7356 164.3640 13.83267649 38520
PRAETORIAN SDA_617      
1 65580U 25203R   26167.06455339  .00000021  00000+0  85022-5 0  9997
2 65580  81.3037  11.9454 0007191 187.2757 172.8296 13.83149900 38539
PRAETORIAN SDA_618      
1 65581U 25203S   26167.03897760  .00000021  00000+0  79607-5 0  9995
2 65581  81.3024  11.5533 0009515 190.9102 169.1851 13.84669431 38552
PRAETORIAN SDA_619      
1 65582U 25203T   26167.07420756  .00000218  00000+0  18590-3 0  9997
2 65582  81.3045  11.8156 0007938 189.0993 171.0020 13.83805652 39179
PRAETORIAN SDA_620      
1 65583U 25203U   26167.10204675  .00000115  00000+0  93216-4 0  9997
2 65583  81.3031  11.8106 0007490 183.8837 176.2263 13.83618136 38547
PRAETORIAN SDA_621      
1 65584U 25203V   26167.07597719  .00000047  00000+0  31823-4 0  9998
2 65584  81.3021  11.7533 0007282 181.7316 178.3816 13.83801072 38548
PRAETORIAN SDA_601      
1 65585U 25203W   26167.04609975 -.00000199  00000+0 -19216-3 0  9995
2 65585  81.3037  12.0764 0005141 199.2047 160.8916 13.83167927 38522
